{"fetched_at":"2026-07-12T05:53:00.955Z","source":"https://celestrak.org/NORAD/elements/gp.php?NAME=JILIN&FORMAT=JSON","constellation":"jilin-1-gaofen","records":[{"OBJECT_NAME":"JILIN GAOFEN OBJECT A","OBJECT_ID":"2026-080A","EPOCH":"2026-07-11T03:44:12.676992","CLASSIFICATION_TYPE":"U","MEAN_MOTION":15.09176094,"ECCENTRICITY":0.0011579,"INCLINATION":97.6616,"RA_OF_ASC_NODE":267.6398,"ARG_OF_PERICENTER":349.3655,"MEAN_ANOMALY":10.7327,"EPHEMERIS_TYPE":0,"NORAD_CAT_ID":68691,"ELEMENT_SET_NO":999,"REV_AT_EPOCH":1327,"BSTAR":0.00022509419,"MEAN_MOTION_DOT":0.00003515,"MEAN_MOTION_DDOT":0},{"OBJECT_NAME":"JILIN GAOFEN OBJECT B","OBJECT_ID":"2026-080B","EPOCH":"2026-07-11T20:48:12.808224","CLASSIFICATION_TYPE":"U","MEAN_MOTION":15.09088192,"ECCENTRICITY":0.0015027,"INCLINATION":97.6595,"RA_OF_ASC_NODE":268.3654,"ARG_OF_PERICENTER":325.5866,"MEAN_ANOMALY":34.4388,"EPHEMERIS_TYPE":0,"NORAD_CAT_ID":68692,"ELEMENT_SET_NO":999,"REV_AT_EPOCH":1338,"BSTAR":0.00017465,"MEAN_MOTION_DOT":0.00002709,"MEAN_MOTION_DDOT":0},{"OBJECT_NAME":"JILIN GAOFEN OBJECT C","OBJECT_ID":"2026-080C","EPOCH":"2026-07-11T03:42:18.138240","CLASSIFICATION_TYPE":"U","MEAN_MOTION":15.0915985,"ECCENTRICITY":0.00123938,"INCLINATION":97.6594,"RA_OF_ASC_NODE":267.6231,"ARG_OF_PERICENTER":329.6909,"MEAN_ANOMALY":30.3601,"EPHEMERIS_TYPE":0,"NORAD_CAT_ID":68693,"ELEMENT_SET_NO":999,"REV_AT_EPOCH":1327,"BSTAR":0.0002229405,"MEAN_MOTION_DOT":0.0000348,"MEAN_MOTION_DDOT":0},{"OBJECT_NAME":"JILIN GAOFEN OBJECT D","OBJECT_ID":"2026-080D","EPOCH":"2026-07-11T20:48:58.902624","CLASSIFICATION_TYPE":"U","MEAN_MOTION":15.08944027,"ECCENTRICITY":0.0016696,"INCLINATION":97.666,"RA_OF_ASC_NODE":268.4376,"ARG_OF_PERICENTER":337.712,"MEAN_ANOMALY":22.3381,"EPHEMERIS_TYPE":0,"NORAD_CAT_ID":68694,"ELEMENT_SET_NO":999,"REV_AT_EPOCH":1336,"BSTAR":0.00017143,"MEAN_MOTION_DOT":0.00002648,"MEAN_MOTION_DDOT":0},{"OBJECT_NAME":"JILIN GAOFEN OBJECT E","OBJECT_ID":"2026-080E","EPOCH":"2026-07-11T20:23:29.345280","CLASSIFICATION_TYPE":"U","MEAN_MOTION":15.09234868,"ECCENTRICITY":0.001274,"INCLINATION":97.6637,"RA_OF_ASC_NODE":268.4397,"ARG_OF_PERICENTER":349.3913,"MEAN_ANOMALY":10.7045,"EPHEMERIS_TYPE":0,"NORAD_CAT_ID":68695,"ELEMENT_SET_NO":999,"REV_AT_EPOCH":1334,"BSTAR":0.00016123,"MEAN_MOTION_DOT":0.00002504,"MEAN_MOTION_DDOT":0},{"OBJECT_NAME":"JILIN GAOFEN OBJECT F","OBJECT_ID":"2026-080F","EPOCH":"2026-07-11T20:21:57.805344","CLASSIFICATION_TYPE":"U","MEAN_MOTION":15.09199323,"ECCENTRICITY":0.0013833,"INCLINATION":97.6608,"RA_OF_ASC_NODE":268.4085,"ARG_OF_PERICENTER":355.1521,"MEAN_ANOMALY":4.9571,"EPHEMERIS_TYPE":0,"NORAD_CAT_ID":68696,"ELEMENT_SET_NO":999,"REV_AT_EPOCH":1334,"BSTAR":0.00016473,"MEAN_MOTION_DOT":0.00002558,"MEAN_MOTION_DDOT":0},{"OBJECT_NAME":"JILIN GAOFEN OBJECT G","OBJECT_ID":"2026-080G","EPOCH":"2026-07-11T20:01:55.429248","CLASSIFICATION_TYPE":"U","MEAN_MOTION":15.09183556,"ECCENTRICITY":0.0013749,"INCLINATION":97.6653,"RA_OF_ASC_NODE":268.4769,"ARG_OF_PERICENTER":347.9563,"MEAN_ANOMALY":12.1334,"EPHEMERIS_TYPE":0,"NORAD_CAT_ID":68697,"ELEMENT_SET_NO":999,"REV_AT_EPOCH":1334,"BSTAR":0.00021165,"MEAN_MOTION_DOT":0.00003304,"MEAN_MOTION_DDOT":0},{"OBJECT_NAME":"JILIN GAOFEN OBJECT H","OBJECT_ID":"2026-080H","EPOCH":"2026-07-10T15:20:06.898272","CLASSIFICATION_TYPE":"U","MEAN_MOTION":15.09105259,"ECCENTRICITY":0.00145489,"INCLINATION":97.6637,"RA_OF_ASC_NODE":267.2744,"ARG_OF_PERICENTER":353.5464,"MEAN_ANOMALY":6.5575,"EPHEMERIS_TYPE":0,"NORAD_CAT_ID":68698,"ELEMENT_SET_NO":999,"REV_AT_EPOCH":1316,"BSTAR":0.00021938544,"MEAN_MOTION_DOT":0.00003421,"MEAN_MOTION_DDOT":0}]}
